{
  "type": "FeatureCollection",
  "features": [
    {
      "type": "Feature",
      "properties": {
        "norad_id": 26766,
        "name": "INTELSAT 10 (IS-10)",
        "group": "intelsat",
        "lat": -2.585830361666303,
        "lon": -101.81152169863893,
        "alt_km": 36097.34691860316,
        "timestamp": "2025-12-26T05:31:12.167261+00:00",
        "meta_object_name": "INTELSAT 10 (IS-10)",
        "meta_object_id": "2001-019A",
        "meta_epoch": "2025-12-25T19:25:55.835328",
        "meta_mean_motion": 0.9907201,
        "meta_eccentricity": 0.00080047,
        "meta_inclination": 8.6586,
        "meta_ra_of_asc_node": 61.0243,
        "meta_arg_of_pericenter": 229.8346,
        "meta_mean_anomaly": 177.6501,
        "meta_ephemeris_type": 0,
        "meta_classification_type": "U",
        "meta_norad_cat_id": 26766,
        "meta_element_set_no": 999,
        "meta_rev_at_epoch": 4386,
        "meta_bstar": 0,
        "meta_mean_motion_dot": 3.8e-07,
        "meta_mean_motion_ddot": 0,
        "tle_line1": "1 26766U 01019A   25359.80967402  .00000038  00000+0  00000+0 0  9997",
        "tle_line2": "2 26766   8.6586  61.0243 0008004 229.8346 177.6501  0.99072010 43860"
      },
      "geometry": {
        "type": "Point",
        "coordinates": [
          -101.81152169863893,
          -2.585830361666303
        ]
      }
    },
    {
      "type": "Feature",
      "properties": {
        "norad_id": 26900,
        "name": "INTELSAT 902 (IS-902)",
        "group": "intelsat",
        "lat": 4.588133592855468,
        "lon": 127.38744424305123,
        "alt_km": 35800.69253018904,
        "timestamp": "2025-12-26T05:31:12.167284+00:00",
        "meta_object_name": "INTELSAT 902 (IS-902)",
        "meta_object_id": "2001-039A",
        "meta_epoch": "2025-12-15T13:09:02.081664",
        "meta_mean_motion": 1.0027087,
        "meta_eccentricity": 0.00045028,
        "meta_inclination": 5.6536,
        "meta_ra_of_asc_node": 74.0372,
        "meta_arg_of_pericenter": 189.6359,
        "meta_mean_anomaly": 327.9329,
        "meta_ephemeris_type": 0,
        "meta_classification_type": "U",
        "meta_norad_cat_id": 26900,
        "meta_element_set_no": 999,
        "meta_rev_at_epoch": 8885,
        "meta_bstar": 0,
        "meta_mean_motion_dot": -2.65e-06,
        "meta_mean_motion_ddot": 0,
        "tle_line1": "1 26900U 01039A   25349.54794076 -.00000265  00000+0  00000+0 0  9997",
        "tle_line2": "2 26900   5.6536  74.0372 0004502 189.6359 327.9329  1.00270870 88858"
      },
      "geometry": {
        "type": "Point",
        "coordinates": [
          127.38744424305123,
          4.588133592855468
        ]
      }
    },
    {
      "type": "Feature",
      "properties": {
        "norad_id": 27380,
        "name": "INTELSAT 904 (IS-904)",
        "group": "intelsat",
        "lat": 6.280566577869006,
        "lon": 146.20005682818027,
        "alt_km": 35793.25457372548,
        "timestamp": "2025-12-26T05:31:12.167301+00:00",
        "meta_object_name": "INTELSAT 904 (IS-904)",
        "meta_object_id": "2002-007A",
        "meta_epoch": "2025-12-24T23:13:20.404128",
        "meta_mean_motion": 1.00272977,
        "meta_eccentricity": 0.00019711,
        "meta_inclination": 6.4832,
        "meta_ra_of_asc_node": 71.2913,
        "meta_arg_of_pericenter": 246.5744,
        "meta_mean_anomaly": 92.7188,
        "meta_ephemeris_type": 0,
        "meta_classification_type": "U",
        "meta_norad_cat_id": 27380,
        "meta_element_set_no": 999,
        "meta_rev_at_epoch": 5001,
        "meta_bstar": 0,
        "meta_mean_motion_dot": -2.07e-06,
        "meta_mean_motion_ddot": 0,
        "tle_line1": "1 27380U 02007A   25358.96759727 -.00000207  00000+0  00000+0 0  9992",
        "tle_line2": "2 27380   6.4832  71.2913 0001971 246.5744  92.7188  1.00272977 50014"
      },
      "geometry": {
        "type": "Point",
        "coordinates": [
          146.20005682818027,
          6.280566577869006
        ]
      }
    },
    {
      "type": "Feature",
      "properties": {
        "norad_id": 27426,
        "name": "DIRECTV 5 (TEMPO 1)",
        "group": "intelsat",
        "lat": -0.7419788740392035,
        "lon": 67.70527270865037,
        "alt_km": 35797.96897667813,
        "timestamp": "2025-12-26T05:31:12.167314+00:00",
        "meta_object_name": "DIRECTV 5 (TEMPO 1)",
        "meta_object_id": "2002-023A",
        "meta_epoch": "2025-12-25T07:28:38.731296",
        "meta_mean_motion": 1.00271555,
        "meta_eccentricity": 0.0003354,
        "meta_inclination": 4.4323,
        "meta_ra_of_asc_node": 77.5052,
        "meta_arg_of_pericenter": 204.4666,
        "meta_mean_anomaly": 174.1445,
        "meta_ephemeris_type": 0,
        "meta_classification_type": "U",
        "meta_norad_cat_id": 27426,
        "meta_element_set_no": 999,
        "meta_rev_at_epoch": 8638,
        "meta_bstar": 0,
        "meta_mean_motion_dot": -3.7e-07,
        "meta_mean_motion_ddot": 0,
        "tle_line1": "1 27426U 02023A   25359.31155939 -.00000037  00000+0  00000+0 0  9997",
        "tle_line2": "2 27426   4.4323  77.5052 0003354 204.4666 174.1445  1.00271555 86385"
      },
      "geometry": {
        "type": "Point",
        "coordinates": [
          67.70527270865037,
          -0.7419788740392035
        ]
      }
    },
    {
      "type": "Feature",
      "properties": {
        "norad_id": 27438,
        "name": "INTELSAT 905 (IS-905)",
        "group": "intelsat",
        "lat": -3.270463146381908,
        "lon": 40.780682606603726,
        "alt_km": 35791.99071502592,
        "timestamp": "2025-12-26T05:31:12.167326+00:00",
        "meta_object_name": "INTELSAT 905 (IS-905)",
        "meta_object_id": "2002-027A",
        "meta_epoch": "2025-12-23T05:41:27.377952",
        "meta_mean_motion": 1.00273243,
        "meta_eccentricity": 0.00027491,
        "meta_inclination": 6.3102,
        "meta_ra_of_asc_node": 71.9349,
        "meta_arg_of_pericenter": 206.5226,
        "meta_mean_anomaly": 121.7385,
        "meta_ephemeris_type": 0,
        "meta_classification_type": "U",
        "meta_norad_cat_id": 27438,
        "meta_element_set_no": 999,
        "meta_rev_at_epoch": 4959,
        "meta_bstar": 0,
        "meta_mean_motion_dot": 1.12e-06,
        "meta_mean_motion_ddot": 0,
        "tle_line1": "1 27438U 02027A   25357.23712243  .00000112  00000+0  00000+0 0  9993",
        "tle_line2": "2 27438   6.3102  71.9349 0002749 206.5226 121.7385  1.00273243 49592"
      },
      "geometry": {
        "type": "Point",
        "coordinates": [
          40.780682606603726,
          -3.270463146381908
        ]
      }
    },
    {
      "type": "Feature",
      "properties": {
        "norad_id": 27445,
        "name": "GALAXY 3C (G-3C)",
        "group": "intelsat",
        "lat": 0.16332145945216578,
        "lon": 82.90325107824695,
        "alt_km": 35785.67026254581,
        "timestamp": "2025-12-26T05:31:12.167338+00:00",
        "meta_object_name": "GALAXY 3C (G-3C)",
        "meta_object_id": "2002-030A",
        "meta_epoch": "2025-12-25T21:10:33.078720",
        "meta_mean_motion": 1.00271502,
        "meta_eccentricity": 9.911e-05,
        "meta_inclination": 3.2945,
        "meta_ra_of_asc_node": 80.3667,
        "meta_arg_of_pericenter": 85.951,
        "meta_mean_anomaly": 151.1017,
        "meta_ephemeris_type": 0,
        "meta_classification_type": "U",
        "meta_norad_cat_id": 27445,
        "meta_element_set_no": 999,
        "meta_rev_at_epoch": 4475,
        "meta_bstar": 0,
        "meta_mean_motion_dot": -1.32e-06,
        "meta_mean_motion_ddot": 0,
        "tle_line1": "1 27445U 02030A   25359.88232730 -.00000132  00000+0  00000+0 0  9999",
        "tle_line2": "2 27445   3.2945  80.3667 0000991  85.9510 151.1017  1.00271502 44758"
      },
      "geometry": {
        "type": "Point",
        "coordinates": [
          82.90325107824695,
          0.16332145945216578
        ]
      }
    },
    {
      "type": "Feature",
      "properties": {
        "norad_id": 27513,
        "name": "INTELSAT 906 (IS-906)",
        "group": "intelsat",
        "lat": 1.2125483172447573,
        "lon": -118.07886641814638,
        "alt_km": 35764.8171870735,
        "timestamp": "2025-12-26T05:31:12.167349+00:00",
        "meta_object_name": "INTELSAT 906 (IS-906)",
        "meta_object_id": "2002-041A",
        "meta_epoch": "2025-12-25T18:30:25.911072",
        "meta_mean_motion": 1.00270895,
        "meta_eccentricity": 0.00061771,
        "meta_inclination": 5.3631,
        "meta_ra_of_asc_node": 75.0767,
        "meta_arg_of_pericenter": 202.1174,
        "meta_mean_anomaly": 159.0704,
        "meta_ephemeris_type": 0,
        "meta_classification_type": "U",
        "meta_norad_cat_id": 27513,
        "meta_element_set_no": 999,
        "meta_rev_at_epoch": 8529,
        "meta_bstar": 0,
        "meta_mean_motion_dot": 3.3e-07,
        "meta_mean_motion_ddot": 0,
        "tle_line1": "1 27513U 02041A   25359.77113323  .00000033  00000+0  00000+0 0  9990",
        "tle_line2": "2 27513   5.3631  75.0767 0006177 202.1174 159.0704  1.00270895 85290"
      },
      "geometry": {
        "type": "Point",
        "coordinates": [
          -118.07886641814638,
          1.2125483172447573
        ]
      }
    }
  ]
}